NORAD_CAT_ID,OBJECT_NAME,OBJECT_TYPE,EPOCH,MEAN_MOTION,ECCENTRICITY,INCLINATION,RA_OF_ASC_NODE,ARG_OF_PERICENTER,MEAN_ANOMALY,BSTAR,MEAN_MOTION_DOT,MEAN_MOTION_DDOT,TLE_LINE0,TLE_LINE1,TLE_LINE2,SEMIMAJOR_AXIS,PERIOD,APOGEE,PERIGEE,DECAYED
52849.0,STARLINK-4197,PAYLOAD,2022-08-31 14:00:01,15.21184304,0.0002029,53.2176,37.9583,36.2569,169.1193,-0.051359,-0.01061839,0.0,0 STARLINK-4197,1 52849U 22062V   22243.58334491 -.01061839  00000-0 -51359-1 0  9994,2 52849  53.2176  37.9583 0002029  36.2569 169.1193 15.21184304 12252,6880.404,94.663,503.665,500.87300000000016,0.0
52849.0,STARLINK-4197,PAYLOAD,2022-08-31 22:00:00,15.20432236,0.0001940999999999,53.2164,36.4334,40.6864,190.6512,-0.052932,-0.01069656,0.0,0 STARLINK-4197,1 52849U 22062V   22243.91667824 -.01069656  00000-0 -52932-1 0  9993,2 52849  53.2164  36.4334 0001941  40.6864 190.6512 15.20432236  1303,6882.6730000000025,94.71,505.874,503.202,0.0
52849.0,STARLINK-4197,PAYLOAD,2022-09-01 14:00:01,15.18917818,0.0001609,53.2167,33.3816,52.6317,227.9664,-0.055746,-0.01090751,0.0,0 STARLINK-4197,1 52849U 22062V   22244.58335648 -.01090751  00000-0 -55746-1 0  9999,2 52849  53.2167  33.3816 0001609  52.6317 227.9664 15.18917818  1307,6887.246999999999,94.804,510.22,508.004,0.0
52849.0,STARLINK-4197,PAYLOAD,2022-09-01 22:00:00,15.18147057,0.0001518,53.2172,31.8582,48.1427,255.6286,-0.0561409999999999,-0.01075339,0.0,0 STARLINK-4197,1 52849U 22062V   22244.91667824 -.01075339  00000-0 -56141-1 0  9995,2 52849  53.2172  31.8582 0001518  48.1427 255.6286 15.18147057  1305,6889.578,94.852,512.489,510.397,0.0
52849.0,STARLINK-4197,PAYLOAD,2022-09-02 14:00:01,15.16627925,0.0001989,53.2175,28.8177,29.746,317.7481,-0.05867,-0.01075649,0.0,0 STARLINK-4197,1 52849U 22062V   22245.58334491 -.01075649  00000-0 -58670-1 0  9993,2 52849  53.2175  28.8177 0001989  29.7460 317.7481 15.16627925  1300,6894.178000000001,94.947,517.414,514.6709999999998,0.0
52849.0,STARLINK-4197,PAYLOAD,2022-09-02 22:00:01,15.15868816,0.000149,53.2172,27.301,45.8716,322.1771,-0.05997,-0.01075714,0.0,0 STARLINK-4197,1 52849U 22062V   22245.91668981 -.01075714  00000-0 -59970-1 0  9991,2 52849  53.2172  27.3010 0001490  45.8716 322.1771 15.15868816  1304,6896.479,94.995,519.372,517.317,0.0
52849.0,STARLINK-4197,PAYLOAD,2022-09-03 00:00:00,15.15676076,0.0001784,53.2164,26.923,43.2283,59.7386,-0.060098,-0.01072397,0.0,0 STARLINK-4197,1 52849U 22062V   22246.00001157 -.01072397  00000-0 -60098-1 0  9995,2 52849  53.2164  26.9230 0001784  43.2283  59.7386 15.15676076 12617,6897.064,95.007,520.159,517.698,0.0
52849.0,STARLINK-4197,PAYLOAD,2022-09-03 14:00:01,15.14349361,0.0001825,53.2174,24.2714,36.1179,10.1143,-0.062618,-0.0107569,0.0,0 STARLINK-4197,1 52849U 22062V   22246.58334491 -.01075690  00000-0 -62618-1 0  9997,2 52849  53.2174  24.2714 0001825  36.1179  10.1143 15.14349361  1306,6901.092,95.09,524.216,521.697,0.0
52849.0,STARLINK-4197,PAYLOAD,2022-09-03 22:00:00,15.13643577,0.0001672,53.216,22.7619,36.0108,27.9455,-0.068425,-0.0114625,0.0,0 STARLINK-4197,1 52849U 22062V   22246.91667824 -.01146250  00000-0 -68425-1 0  9996,2 52849  53.2160  22.7619 0001672  36.0108  27.9455 15.13643577  1306,6903.236999999999,95.135,526.256,523.947,0.0
52849.0,STARLINK-4197,PAYLOAD,2022-09-04 14:00:01,15.12060132,0.0001658,53.2165,19.7427,50.9056,45.918,-0.065815,-0.0106105,0.0,0 STARLINK-4197,1 52849U 22062V   22247.58335648 -.01061050  00000-0 -65815-1 0  9990,2 52849  53.2165  19.7427 0001658  50.9056  45.9180 15.12060132 12851,6908.055,95.234,531.066,528.775,0.0
52849.0,STARLINK-4197,PAYLOAD,2022-09-04 20:00:01,15.11499076,0.0001458,53.2173,18.6114,49.6687,328.4355,-0.067559,-0.01071363,0.0,0 STARLINK-4197,1 52849U 22062V   22247.83334491 -.01071363  00000-0 -67559-1 0  9998,2 52849  53.2173  18.6114 0001458  49.6687 328.4355 15.11499076  1307,6909.765,95.27,532.637,530.622,0.0
52849.0,STARLINK-4197,PAYLOAD,2022-09-05 06:00:00,15.10550607,0.0001706,53.2172,16.727999999999998,45.1949,80.6824,-0.069559,-0.01074138,0.0,0 STARLINK-4197,1 52849U 22062V   22248.25001157 -.01074138  00000-0 -69559-1 0  9990,2 52849  53.2172  16.7280 0001706  45.1949  80.6824 15.10550607 12966,6912.656999999997,95.329,535.701,533.342,0.0
52849.0,STARLINK-4197,PAYLOAD,2022-09-05 14:00:01,15.09701441,0.0002008,53.2172,15.2274,30.4923,108.5919,-0.05538,-0.0084056,0.0,0 STARLINK-4197,1 52849U 22062V   22248.58334491 -.00840560  00000-0 -55380-1 0  9992,2 52849  53.2172  15.2274 0002008  30.4923 108.5919 15.09701441  1301,6915.249,95.383,538.502,535.725,0.0
52849.0,STARLINK-4197,PAYLOAD,2022-09-05 20:00:01,15.09135673,0.0001445,53.2172,14.1034,45.5981,12.7687,-0.026044,-0.00395771,0.0,0 STARLINK-4197,1 52849U 22062V   22248.83334491 -.00395771  00000-0 -26044-1 0  9994,2 52849  53.2172  14.1034 0001445  45.5981  12.7687 15.09135673 13048,6916.977,95.419,539.841,537.842,0.0
52849.0,STARLINK-4197,PAYLOAD,2022-09-05 22:00:00,15.089685500000002,0.0001774999999999,53.2147,13.7333,31.0471,120.2777,-0.0077202,-0.00121518,0.0,0 STARLINK-4197,1 52849U 22062V   22248.91667824 -.00121518  00000-0 -77202-2 0  9991,2 52849  53.2147  13.7333 0001775  31.0471 120.2777 15.08968550  1305,6917.486999999999,95.429,540.58,538.125,0.0
52849.0,STARLINK-4197,PAYLOAD,2022-09-06 06:00:00,15.08837655,0.0001742,53.2164,12.2321,40.6129,122.4265,-0.00021486,-3.706e-05,0.0,0 STARLINK-4197,1 52849U 22062V   22249.25001157 -.00003706  00000-0 -21486-3 0  9992,2 52849  53.2164  12.2321 0001742  40.6129 122.4265 15.08837655 13114,6917.888000000001,95.438,540.9580000000002,538.547,0.0
52849.0,STARLINK-4197,PAYLOAD,2022-09-06 12:00:00,15.08906386,0.0001836,53.2125,11.118,40.3646,41.3881,-0.0034335,-0.00054618,0.0,0 STARLINK-4197,1 52849U 22062V   22249.50001157 -.00054618  00000-0 -34335-2 0  9994,2 52849  53.2125  11.1180 0001836  40.3646  41.3881 15.08906386 13141,6917.677,95.433,540.813,538.2719999999998,0.0
52849.0,STARLINK-4197,PAYLOAD,2022-09-06 14:00:01,15.08898239,0.0001916999999999,53.2125,10.7443,39.5374,135.1318,-0.0033734999999999,-0.00053664,0.0,0 STARLINK-4197,1 52849U 22062V   22249.58334491 -.00053664  00000-0 -33735-2 0  9995,2 52849  53.2125  10.7443 0001917  39.5374 135.1318 15.08898239  1305,6917.7019999999975,95.434,540.894,538.241,0.0
52849.0,STARLINK-4197,PAYLOAD,2022-09-06 22:00:00,15.08892322,0.0002037,53.2125,9.2476,41.2621,145.0276,-0.0073283,-0.00115227,0.0,0 STARLINK-4197,1 52849U 22062V   22249.91667824 -.00115227  00000-0 -73283-2 0  9997,2 52849  53.2125   9.2476 0002037  41.2621 145.0276 15.08892322  1303,6917.72,95.434,540.995,538.1759999999998,0.0
52849.0,STARLINK-4197,PAYLOAD,2022-09-07 14:00:01,15.08772709,0.0001992,53.2129,6.2548,41.7144,167.7171,0.0025217,0.00039999,0.0,0 STARLINK-4197,1 52849U 22062V   22250.58334491  .00039999  00000-0  25217-2 0  9996,2 52849  53.2129   6.2548 0001992  41.7144 167.7171 15.08772709 13313,6918.0859999999975,95.442,541.3290000000002,538.573,0.0
52849.0,STARLINK-4197,PAYLOAD,2022-09-07 22:00:00,15.08826044,0.000195,53.2128,4.7581,38.8046,182.1508,-0.00085497,-0.00013864,0.0,0 STARLINK-4197,1 52849U 22062V   22250.91667824 -.00013864  00000-0 -85497-3 0  9994,2 52849  53.2128   4.7581 0001950  38.8046 182.1508 15.08826044  1307,6917.9230000000025,95.438,541.137,538.439,0.0
52849.0,STARLINK-4197,PAYLOAD,2022-09-08 14:00:01,15.08835361,0.0001962,53.2131,1.7655,40.4918,203.6209,-0.00015559,-2.763e-05,0.0,0 STARLINK-4197,1 52849U 22062V   22251.58334491 -.00002763  00000-0 -15559-3 0  9997,2 52849  53.2131   1.7655 0001962  40.4918 203.6209 15.08835361  1309,6917.895,95.438,541.117,538.4019999999998,0.0
52849.0,STARLINK-4197,PAYLOAD,2022-09-08 22:00:00,15.08861722,0.0001924,53.2129,0.2686,39.4207,216.2823,-0.0012075999999999,-0.00019467,0.0,0 STARLINK-4197,1 52849U 22062V   22251.91667824 -.00019467  00000-0 -12076-2 0  9992,2 52849  53.2129   0.2686 0001924  39.4207 216.2823 15.08861722  1303,6917.814,95.436,541.01,538.3480000000002,0.0
52849.0,STARLINK-4197,PAYLOAD,2022-09-09 14:00:01,15.08848572,0.000193,53.2129,357.2762,39.3163,239.6266,-0.00054992,-9.032e-05,0.0,0 STARLINK-4197,1 52849U 22062V   22252.58334491 -.00009032  00000-0 -54992-3 0  9998,2 52849  53.2129 357.2762 0001930  39.3163 239.6266 15.08848572  1308,6917.854,95.437,541.054,538.384,0.0
52849.0,STARLINK-4197,PAYLOAD,2022-09-09 22:00:00,15.08865342,0.000192,53.2126,355.7792,38.6886,251.8526,-0.0037183,-0.00059022,0.0,0 STARLINK-4197,1 52849U 22062V   22252.91667824 -.00059022  00000-0 -37183-2 0  9990,2 52849  53.2126 355.7792 0001920  38.6886 251.8526 15.08865342  1303,6917.803000000001,95.436,540.996,538.34,0.0
52849.0,STARLINK-4197,PAYLOAD,2022-09-10 14:00:01,15.08846376,0.0001966999999999,53.2125,352.7871,40.9501,272.7829,-0.0014800999999999,-0.00023771,0.0,0 STARLINK-4197,1 52849U 22062V   22253.58334491 -.00023771  00000-0 -14801-2 0  9999,2 52849  53.2125 352.7871 0001967  40.9501 272.7829 15.08846376  1302,6917.861,95.437,541.087,538.365,0.0
52849.0,STARLINK-4197,PAYLOAD,2022-09-10 22:00:00,15.08849467,0.0001894,53.2122,351.2899,38.2182,287.1169,-0.0024056,-0.0003838,0.0,0 STARLINK-4197,1 52849U 22062V   22253.91667824 -.00038380  00000-0 -24056-2 0  9990,2 52849  53.2122 351.2899 0001894  38.2182 287.1169 15.08849467  1308,6917.851,95.437,541.0269999999998,538.406,0.0
52849.0,STARLINK-4197,PAYLOAD,2022-09-11 14:00:01,15.08860899,0.0001952,53.2144,348.2949,39.1577,309.3626,-0.0023679,-0.00037798,0.0,0 STARLINK-4197,1 52849U 22062V   22254.58334491 -.00037798  00000-0 -23679-2 0  9997,2 52849  53.2144 348.2949 0001952  39.1577 309.3626 15.08860899 13914,6917.816999999999,95.436,541.0319999999998,538.331,0.0
52849.0,STARLINK-4197,PAYLOAD,2022-09-11 22:00:00,15.08792768,0.0001836,53.2158,346.7948,40.4192,319.719,0.003277,0.00052185,0.0,0 STARLINK-4197,1 52849U 22062V   22254.91667824  .00052185  00000-0  32770-2 0  9990,2 52849  53.2158 346.7948 0001836  40.4192 319.7190 15.08792768  1300,6918.025,95.441,541.16,538.62,0.0
